#aV2015  5  3  0  0  0.00000000     288 DD+AD WGS84 FIT  NGA
## 1843      0.00000000   300.00000000 57145 0.0000000000000
+   31     1  2  3  4  5  6  7  9 10 11 12 13 14 15 16 17 18
+         19 20 21 22 23 24 25 26 27 28 29 30 31 32  0  0  0
+          0  0  0  0  0  0  0  0  0  0  0  0  0  0  0  0  0
+          0  0  0  0  0  0  0  0  0  0  0  0  0  0  0  0  0
+          0  0  0  0  0  0  0  0  0  0  0  0  0  0  0  0  0
++         2  2  2  2  2  2  2  2  2  2  2  2  2  2  2  2  2
++         2  2  2  2  2  2  2  2  2  2  2  2  2  2  0  0  0
++         0  0  0  0  0  0  0  0  0  0  0  0  0  0  0  0  0
++         0  0  0  0  0  0  0  0  0  0  0  0  0  0  0  0  0
++         0  0  0  0  0  0  0  0  0  0  0  0  0  0  0  0  0
%c cc cc ccc ccc cccc cccc cccc cccc ccccc ccccc ccccc ccccc
%c cc cc ccc ccc cccc cccc cccc cccc ccccc ccccc ccccc ccccc
%f  0.0000000  0.000000000  0.00000000000  0.000000000000000
%f  0.0000000  0.000000000  0.00000000000  0.000000000000000
%i    0    0    0    0      0      0      0      0         0
%i    0    0    0    0      0      0      0      0         0
/*      NGA, ST. LOUIS,MO.                                  
/*   EPHEMERIS COMPUTED FROM  1 DAYS OF DATA                
/*   EPOCHA SMOOTHER                                       
/* CCCCCCCCCCCCCCCCCCCCCCCCCCCCCCCCCCCCCCCCCCCCCCCCCCCCCCCCC
*  2015  5  3 22 40  0.00000000
P  1  13614.343643 -21321.351406   7723.047208     -6.026057                    
V  1   -834.095910  10269.874416  29814.442895      0.004601                    
P  2 -16271.729517   1651.515001 -20480.662409    563.631914                    
V  2   7307.233547 -26030.378391  -8217.941425      0.023404                    
P  3  17833.704009 -13431.574618 -14405.018943    316.765558                    
V  3  18389.803532  -1121.886688  23751.676014      0.114227                    
P  4  16426.116690 -13969.012488  15010.906096    -13.397461                    
V  4  -3853.354303  19610.850225  22261.977510     -0.013125                    
P  5 -26368.244257   2884.406196  -2727.345316   -246.013615                    
V  5   2775.067099  -3644.412284 -31069.890108      0.046829                    
P  6  -9677.408316 -14466.670424 -20064.117342    151.712179                    
V  6   9639.688946 -23605.894066  12361.051676      0.094617                    
P  7   5508.608145 -25133.103557   5851.464826    459.703824                    
V  7   5215.962205  -5876.364645 -31029.745416      0.026034                    
P  9  -2066.277546 -20555.050013 -16690.832636   -149.547763                    
V  9  15151.120985  14938.332556 -20298.307177     -0.070137                    
P 10 -16016.886916 -11049.900590 -18642.641584   -173.445675                    
V 10  22242.176457  -5217.583117 -15935.195157     -0.015668                    
P 11  11835.992204 -18284.231212  14588.758559   -575.762436                    
V 11   3607.202290  19733.987803  21183.878357     -0.026685                    
P 12 -20485.689646  11063.920937 -12665.946004    289.965024                    
V 12 -16048.326929    399.473634  26722.556714      0.031503                    
P 13 -18562.817565  -6001.440158  17820.430714   -111.270974                    
V 13 -11510.922251 -19891.494718 -18655.402705     -0.033575                    
P 14  15147.743041  21912.622196    741.674412     66.186185                    
V 14  -2397.980303    925.129478  31777.059985     -0.028386                    
P 15 -14701.380623   6939.056614  20952.928543   -247.169403                    
V 15 -17876.673404 -20073.700593  -5552.752762     -0.021753                    
P 16  26571.613857   -878.837660  -3169.449985   -132.667860                    
V 16  -3684.346071   1955.787472 -31818.903704      0.036786                    
P 17 -15153.693720 -21888.889948   1962.093830   -169.383637                    
V 17   3078.838205    301.723081  31744.349961     -0.017868                    
P 18   2758.512297  15979.569462  21526.931423    398.711068                    
V 18 -25877.777796   4926.035583   -653.486263      0.028976                    
P 19  16085.898143  -2020.703709  20941.065817   -509.333026                    
V 19  14891.293003  22405.167772  -8739.996288     -0.011821                    
P 20 -25897.308852   1819.133547  -6118.812323    316.433345                    
V 20   6437.845855  -5347.971334 -29599.008438      0.036988                    
P 21  -1599.822335  25000.437770   8939.742888   -442.646895                    
V 21  -6747.600092   8842.404511 -28522.989760     -0.036075                    
P 22  15081.427362  11565.035324  18852.073566    346.515375                    
V 22 -22763.370546   6237.988249  14386.092281      0.040088                    
P 23   7993.850517 -13881.442503 -20976.774306   -106.014214                    
V 23  18048.309992  20219.311560  -6888.826713     -0.024776                    
P 24 -14534.557494  19535.757785  10394.828640    -47.679867                    
V 24   1687.595597 -13503.659523  27780.783035     -0.005931                    
P 25  -8245.358501  15255.355785 -20163.719413    -25.667242                    
V 25 -25171.083587   3486.443836  13153.866801     -0.036974                    
P 26  22682.499162   5055.725198 -12871.006794     26.530551                    
V 26 -15667.488899   5143.758195 -25600.022050      0.039614                    
P 27  20320.121123   7516.737786  15426.204259     69.407311                    
V 27  11284.152628  16068.257470 -22562.127348      0.026813                    
P 28  -9746.034760 -13200.609778  21525.274549    437.349169                    
V 28  25613.616924  -3163.010610   9862.360699      0.027088                    
P 29   -936.787442  19322.368566 -18197.555492    608.235848                    
V 29 -14985.544408 -17639.386444 -17882.650432      0.023333                    
P 30  -1967.918128 -21705.609653  15127.547417    -64.223538                    
V 30   9874.344773 -16686.813524 -22697.630936      0.047316                    
P 31  11156.048902  10967.277601 -21282.130065    316.896946                    
V 31 -10807.708890  25128.559917   7569.680208     -0.010625                    
P 32  25741.884617  -4431.225635  -2766.991530   -160.300748                    
V 32   3889.385668   3339.269901  31541.729485      0.095917                    
EOF
